{
  "norad_id": 57092,
  "name": "STARLINK-6225",
  "history": [
    {
      "epoch": "2026-03-28T18:18:28.483488Z",
      "apogee_km": 486.2033201684544,
      "perigee_km": 484.8994939186523,
      "latitude_deg": -4.254246670022568e-05,
      "longitude_deg": -112.93304167309878,
      "height_km": 485.3627737276419,
      "semi_major_axis_km": 6863.688407043553,
      "eccentricity": 9.498e-05,
      "inclination_deg": 43.0007,
      "raan_deg": 347.8643,
      "arg_perigee_deg": 266.9319,
      "mean_anomaly_deg": 93.1423,
      "mean_motion_rev_day": 15.26744706
    },
    {
      "epoch": "2026-03-29T02:09:30.599136Z",
      "apogee_km": 486.24019407474134,
      "perigee_km": 484.83863135126467,
      "latitude_deg": 3.0964130854395215e-05,
      "longitude_deg": 127.14050928903667,
      "height_km": 485.3604038268076,
      "semi_major_axis_km": 6863.676412713003,
      "eccentricity": 0.0001021,
      "inclination_deg": 43.001,
      "raan_deg": 346.019,
      "arg_perigee_deg": 266.3649,
      "mean_anomaly_deg": 93.7086,
      "mean_motion_rev_day": 15.26748708
    },
    {
      "epoch": "2026-03-30T01:42:38.128032Z",
      "apogee_km": 486.2226151705263,
      "perigee_km": 484.89064678449813,
      "latitude_deg": 5.859847183993751e-05,
      "longitude_deg": 127.35681888109421,
      "height_km": 485.315515496641,
      "semi_major_axis_km": 6863.693630977512,
      "eccentricity": 9.703e-05,
      "inclination_deg": 43.0009,
      "raan_deg": 340.4839,
      "arg_perigee_deg": 271.5167,
      "mean_anomaly_deg": 88.5574,
      "mean_motion_rev_day": 15.26742963
    },
    {
      "epoch": "2026-03-30T09:33:40.811328Z",
      "apogee_km": 486.25263250761964,
      "perigee_km": 484.88057815691354,
      "latitude_deg": 1.4679692452466136e-05,
      "longitude_deg": 7.427973368591883,
      "height_km": 485.32676158594757,
      "semi_major_axis_km": 6863.703605332266,
      "eccentricity": 9.995e-05,
      "inclination_deg": 43.0005,
      "raan_deg": 338.6387,
      "arg_perigee_deg": 271.365,
      "mean_anomaly_deg": 88.7087,
      "mean_motion_rev_day": 15.26739635
    },
    {
      "epoch": "2026-03-30T22:07:20.848512Z",
      "apogee_km": 486.2558683373536,
      "perigee_km": 484.8886174561685,
      "latitude_deg": -1.5739467104780026e-05,
      "longitude_deg": 175.54305300692303,
      "height_km": 485.3711650089708,
      "semi_major_axis_km": 6863.709242896761,
      "eccentricity": 9.96e-05,
      "inclination_deg": 43.0009,
      "raan_deg": 335.6865,
      "arg_perigee_deg": 268.1236,
      "mean_anomaly_deg": 91.9501,
      "mean_motion_rev_day": 15.26737754
    },
    {
      "epoch": "2026-03-31T16:57:50.309856Z",
      "apogee_km": 486.27262557744325,
      "perigee_km": 484.85733022959903,
      "latitude_deg": -9.786945286574254e-06,
      "longitude_deg": -112.28188877205723,
      "height_km": 485.34174545365084,
      "semi_major_axis_km": 6863.701977903521,
      "eccentricity": 0.0001031,
      "inclination_deg": 43.0002,
      "raan_deg": 331.2581,
      "arg_perigee_deg": 269.9778,
      "mean_anomaly_deg": 90.0955,
      "mean_motion_rev_day": 15.26740178
    },
    {
      "epoch": "2026-03-31T23:14:40.046784Z",
      "apogee_km": 486.2703380313451,
      "perigee_km": 484.8358268041211,
      "latitude_deg": 3.201850882813846e-05,
      "longitude_deg": 151.7766887284048,
      "height_km": 485.32883005010285,
      "semi_major_axis_km": 6863.690082417733,
      "eccentricity": 0.0001045,
      "inclination_deg": 42.9998,
      "raan_deg": 329.7818,
      "arg_perigee_deg": 270.0566,
      "mean_anomaly_deg": 90.0166,
      "mean_motion_rev_day": 15.26744147
    },
    {
      "epoch": "2026-04-01T22:47:47.580864Z",
      "apogee_km": 486.2737197097613,
      "perigee_km": 484.86116933507856,
      "latitude_deg": -2.65530048266339e-05,
      "longitude_deg": 151.9930853992813,
      "height_km": 485.35198882491085,
      "semi_major_axis_km": 6863.70444452242,
      "eccentricity": 0.0001029,
      "inclination_deg": 43.0006,
      "raan_deg": 324.2469,
      "arg_perigee_deg": 269.3504,
      "mean_anomaly_deg": 90.7229,
      "mean_motion_rev_day": 15.26739355
    },
    {
      "epoch": "2026-04-02T22:20:54.269952Z",
      "apogee_km": 486.17654804943777,
      "perigee_km": 484.90415954159107,
      "latitude_deg": 3.4702814071164606e-05,
      "longitude_deg": 152.21373979298627,
      "height_km": 485.37141618313234,
      "semi_major_axis_km": 6863.677353795514,
      "eccentricity": 9.269e-05,
      "inclination_deg": 43.0013,
      "raan_deg": 318.7126,
      "arg_perigee_deg": 265.0807,
      "mean_anomaly_deg": 94.9939,
      "mean_motion_rev_day": 15.26748394
    },
    {
      "epoch": "2026-04-03T15:37:11.947872Z",
      "apogee_km": 486.24415165287974,
      "perigee_km": 484.883766122829,
      "latitude_deg": 1.1632480095953223e-05,
      "longitude_deg": -111.6301612802064,
      "height_km": 485.370339858049,
      "semi_major_axis_km": 6863.7009588878545,
      "eccentricity": 9.91e-05,
      "inclination_deg": 42.9994,
      "raan_deg": 314.6517,
      "arg_perigee_deg": 267.4705,
      "mean_anomaly_deg": 92.6033,
      "mean_motion_rev_day": 15.26740518
    },
    {
      "epoch": "2026-04-04T15:10:48.229824Z",
      "apogee_km": 489.23626758201226,
      "perigee_km": 483.8680806478542,
      "latitude_deg": -1.6414182529614086e-05,
      "longitude_deg": -111.53184465198215,
      "height_km": 486.58105336962933,
      "semi_major_axis_km": 6864.689174114933,
      "eccentricity": 0.000391,
      "inclination_deg": 43.0022,
      "raan_deg": 309.1188,
      "arg_perigee_deg": 95.5192,
      "mean_anomaly_deg": 264.6105,
      "mean_motion_rev_day": 15.26410854
    },
    {
      "epoch": "2026-04-06T04:00:05.000256Z",
      "apogee_km": 486.44108865571434,
      "perigee_km": 484.66504021464243,
      "latitude_deg": 10.675729062866855,
      "longitude_deg": -145.6182350130382,
      "height_km": 484.86433165762196,
      "semi_major_axis_km": 6863.690064435178,
      "eccentricity": 0.00012938,
      "inclination_deg": 43.0007,
      "raan_deg": 300.4619,
      "arg_perigee_deg": 273.5134,
      "mean_anomaly_deg": 250.7504,
      "mean_motion_rev_day": 15.26744153
    },
    {
      "epoch": "2026-04-07T13:49:40.983456Z",
      "apogee_km": 486.0626718727772,
      "perigee_km": 485.0950252124494,
      "latitude_deg": -1.1965281908468996e-05,
      "longitude_deg": -110.76076275357563,
      "height_km": 485.2569073754616,
      "semi_major_axis_km": 6863.7158485426135,
      "eccentricity": 7.049e-05,
      "inclination_deg": 43.0005,
      "raan_deg": 292.5111,
      "arg_perigee_deg": 281.7075,
      "mean_anomaly_deg": 78.3697,
      "mean_motion_rev_day": 15.2673555
    },
    {
      "epoch": "2026-04-07T20:06:31.026240Z",
      "apogee_km": 486.152880176347,
      "perigee_km": 485.01487525482116,
      "latitude_deg": -2.2966495589782598e-05,
      "longitude_deg": 153.2965794076457,
      "height_km": 485.34256321035787,
      "semi_major_axis_km": 6863.720877715584,
      "eccentricity": 8.29e-05,
      "inclination_deg": 43.0005,
      "raan_deg": 291.0349,
      "arg_perigee_deg": 271.7791,
      "mean_anomaly_deg": 88.2965,
      "mean_motion_rev_day": 15.26733872
    },
    {
      "epoch": "2026-04-08T16:00:01.999584Z",
      "apogee_km": 486.0821650012567,
      "perigee_km": 484.9992139354117,
      "latitude_deg": -36.74974391170688,
      "longitude_deg": 82.2089088481464,
      "height_km": 495.75689543785944,
      "semi_major_axis_km": 6863.677689468334,
      "eccentricity": 7.889e-05,
      "inclination_deg": 43.0008,
      "raan_deg": 286.3622,
      "arg_perigee_deg": 264.6819,
      "mean_anomaly_deg": 336.2175,
      "mean_motion_rev_day": 15.26748282
    },
    {
      "epoch": "2026-04-09T20:00:01.999008Z",
      "apogee_km": 486.16149809372655,
      "perigee_km": 485.04545389233135,
      "latitude_deg": -0.5554573886773926,
      "longitude_deg": -37.70922784077089,
      "height_km": 485.4692088546868,
      "semi_major_axis_km": 6863.740475993029,
      "eccentricity": 8.13e-05,
      "inclination_deg": 43.0007,
      "raan_deg": 279.7826,
      "arg_perigee_deg": 272.4163,
      "mean_anomaly_deg": 268.3175,
      "mean_motion_rev_day": 15.26727333
    },
    {
      "epoch": "2026-04-10T04:38:00.484224Z",
      "apogee_km": 485.92447493504005,
      "perigee_km": 485.20557078516595,
      "latitude_deg": 2.1160273137445008e-05,
      "longitude_deg": 9.818284852646771,
      "height_km": 485.26372877811144,
      "semi_major_axis_km": 6863.702022860103,
      "eccentricity": 5.237e-05,
      "inclination_deg": 43.0016,
      "raan_deg": 277.7507,
      "arg_perigee_deg": 282.4471,
      "mean_anomaly_deg": 77.6322,
      "mean_motion_rev_day": 15.26740163
    },
    {
      "epoch": "2026-04-11T18:19:00.046272Z",
      "apogee_km": 486.00875380016987,
      "perigee_km": 485.1329446786076,
      "latitude_deg": 4.178042680751142e-05,
      "longitude_deg": 154.16713401689017,
      "height_km": 485.3785876023361,
      "semi_major_axis_km": 6863.707849239388,
      "eccentricity": 6.38e-05,
      "inclination_deg": 43.0014,
      "raan_deg": 268.8953,
      "arg_perigee_deg": 265.8777,
      "mean_anomaly_deg": 94.2002,
      "mean_motion_rev_day": 15.26738219
    },
    {
      "epoch": "2026-04-13T03:17:21.493248Z",
      "apogee_km": 485.9918658079687,
      "perigee_km": 485.1100191811165,
      "latitude_deg": -1.1463148634762191e-05,
      "longitude_deg": 10.472576483223676,
      "height_km": 485.37695711082966,
      "semi_major_axis_km": 6863.687942494543,
      "eccentricity": 6.424e-05,
      "inclination_deg": 43.0009,
      "raan_deg": 261.1443,
      "arg_perigee_deg": 263.5141,
      "mean_anomaly_deg": 96.5637,
      "mean_motion_rev_day": 15.26744861
    }
  ]
}